NORAD_CAT_ID,OBJECT_NAME,OBJECT_TYPE,EPOCH,MEAN_MOTION,ECCENTRICITY,INCLINATION,RA_OF_ASC_NODE,ARG_OF_PERICENTER,MEAN_ANOMALY,BSTAR,MEAN_MOTION_DOT,MEAN_MOTION_DDOT,TLE_LINE0,TLE_LINE1,TLE_LINE2,SEMIMAJOR_AXIS,PERIOD,APOGEE,PERIGEE,DECAYED
55957.0,STARLINK-5884,PAYLOAD,2023-05-18 01:56:06,15.69930267,0.0003452,70.0011,8.6769,258.8023,101.2784,2.4349e-05,2.717e-05,0.0,0 STARLINK-5884,1 55957U 23037AV  23138.08062859  .00002717  00000-0  24349-4 0  9994,2 55957  70.0011   8.6769 0003452 258.8023 101.2784 15.69930267  9819,6737.234,91.724,361.424,356.773,0.0
55957.0,STARLINK-5884,PAYLOAD,2023-05-19 00:52:23,15.69927142,0.0003671,69.9999,5.9903,264.7678,95.3099,1.9778e-05,2.166e-05,0.0,0 STARLINK-5884,1 55957U 23037AV  23139.03638012  .00002166  00000-0  19778-4 0  9998,2 55957  69.9999   5.9903 0003671 264.7678  95.3099 15.69927142 10302,6737.242,91.724,361.581,356.634,0.0
55957.0,STARLINK-5884,PAYLOAD,2023-05-19 19:13:24,15.69921771,0.0003884,69.9997,3.8404,265.8804,94.1948,1.5098e-06,-3.2e-07,0.0,0 STARLINK-5884,1 55957U 23037AV  23139.80098281 -.00000032  00000-0  15098-5 0  9994,2 55957  69.9997   3.8404 0003884 265.8804  94.1948 15.69921771 10089,6737.258,91.724,361.74,356.506,0.0
55957.0,STARLINK-5884,PAYLOAD,2023-05-20 01:20:25,15.69932868,0.0003875,69.9993,3.1237,265.6011,94.4742,2.2249e-05,2.464e-05,0.0,0 STARLINK-5884,1 55957U 23037AV  23140.05584505  .00002464  00000-0  22249-4 0  9997,2 55957  69.9993   3.1237 0003875 265.6011  94.4742 15.69932868 10466,6737.226,91.724,361.702,356.48,0.0
55957.0,STARLINK-5884,PAYLOAD,2023-05-20 19:41:26,15.69936021,0.0004034,69.9992,0.9743,263.6909,96.3827,8.1212e-05,9.569e-05,0.0,0 STARLINK-5884,1 55957U 23037AV  23140.82044221  .00009569  00000-0  81212-4 0  9996,2 55957  69.9992   0.9743 0004034 263.6909  96.3827 15.69936021 10240,6737.217,91.723,361.8,356.364,0.0
55957.0,STARLINK-5884,PAYLOAD,2023-05-21 00:16:45,15.69822635,0.0003676,70.0005,0.4349,312.8945,47.1941,-0.00025313,-0.00030414,0.0,0 STARLINK-5884,1 55957U 23037AV  23141.01163588 -.00030414  00000-0 -25313-3 0  9990,2 55957  70.0005   0.4349 0003676 312.8945  47.1941 15.69822635 10610,6737.541,91.73,361.883,356.93,0.0
55957.0,STARLINK-5884,PAYLOAD,2023-05-21 14:02:31,15.69790107,0.0004118,70.0003,358.8225,285.6851,74.389,-0.00040264,-0.00048093,0.0,0 STARLINK-5884,1 55957U 23037AV  23141.58508799 -.00048093  00000-0 -40264-3 0  9993,2 55957  70.0003 358.8225 0004118 285.6851  74.3890 15.69790107 10361,6737.635,91.732,362.274,356.725,0.0
55957.0,STARLINK-5884,PAYLOAD,2023-05-21 15:34:13,15.69932368,0.0003622,70.0003,358.6435,270.1166,89.9615,2.8797e-05,3.252e-05,0.0,0 STARLINK-5884,1 55957U 23037AV  23141.64876347  .00003252  00000-0  28797-4 0  9991,2 55957  70.0003 358.6435 0003622 270.1166  89.9615 15.69932368 10712,6737.227,91.724,361.533,356.652,0.0
55957.0,STARLINK-5884,PAYLOAD,2023-05-21 17:05:58,15.69932563,0.0003727,70.0,358.4643,268.079,91.9979,3.3065e-05,3.766e-05,0.0,0 STARLINK-5884,1 55957U 23037AV  23141.71247943  .00003766  00000-0  33065-4 0  9997,2 55957  70.0000 358.4643 0003727 268.0790  91.9979 15.69932563 10389,6737.227,91.724,361.603,356.581,0.0
55957.0,STARLINK-5884,PAYLOAD,2023-05-21 23:12:59,15.69929314,0.0003733,70.0006,357.7488,274.5137,85.5632,4.1254e-05,4.752e-05,0.0,0 STARLINK-5884,1 55957U 23037AV  23141.96734982  .00004752  00000-0  41254-4 0  9993,2 55957  70.0006 357.7488 0003733 274.5137  85.5632 15.69929314 10428,6737.236,91.724,361.616,356.586,0.0
55957.0,STARLINK-5884,PAYLOAD,2023-05-22 16:02:15,15.69927149,0.0003368,70.0004,355.7781,259.5289,100.5527,4.3192e-05,4.984e-05,0.0,0 STARLINK-5884,1 55957U 23037AV  23142.66823458  .00004984  00000-0  43192-4 0  9998,2 55957  70.0004 355.7781 0003368 259.5289 100.5527 15.69927149 10879,6737.242,91.724,361.377,356.838,0.0
55957.0,STARLINK-5884,PAYLOAD,2023-05-22 20:37:31,15.69920716,0.0003655,70.0003,355.2397,268.5663,91.5114,2.891e-05,3.264e-05,0.0,0 STARLINK-5884,1 55957U 23037AV  23142.85938675  .00003264  00000-0  28910-4 0  9998,2 55957  70.0003 355.2397 0003655 268.5663  91.5114 15.69920716 10561,6737.261,91.724,361.588,356.663,0.0
55957.0,STARLINK-5884,PAYLOAD,2023-05-22 23:41:01,15.69920577,0.000367,69.9999,354.8817,267.0751,93.0025,3.3464e-05,3.812e-05,0.0,0 STARLINK-5884,1 55957U 23037AV  23142.98682098  .00003812  00000-0  33464-4 0  9996,2 55957  69.9999 354.8817 0003670 267.0751  93.0025 15.69920577 10926,6737.261,91.724,361.599,356.654,0.0
55957.0,STARLINK-5884,PAYLOAD,2023-05-23 18:02:02,15.69928569,0.0003542,69.9995,352.7311,265.2477,94.8314,1.261e-05,1.304e-05,0.0,0 STARLINK-5884,1 55957U 23037AV  23143.75141934  .00001304  00000-0  12610-4 0  9995,2 55957  69.9995 352.7311 0003542 265.2477  94.8314 15.69928569 10706,6737.238,91.724,361.49,356.717,0.0
55957.0,STARLINK-5884,PAYLOAD,2023-05-24 00:09:03,15.6991676,0.0003274,69.9996,352.0152,276.1359,83.9463,-6.3868e-06,-9.8e-06,0.0,0 STARLINK-5884,1 55957U 23037AV  23144.00629243 -.00000980  00000-0 -63868-5 0  9991,2 55957  69.9996 352.0152 0003274 276.1359  83.9463 15.69916760 11081,6737.272,91.725,361.343,356.931,0.0
55957.0,STARLINK-5884,PAYLOAD,2023-05-24 15:26:34,15.69918912,0.0003836,69.9996,350.2226,273.2933,86.7824,7.7074e-06,7.14e-06,0.0,0 STARLINK-5884,1 55957U 23037AV  23144.64345823  .00000714  00000-0  77074-5 0  9997,2 55957  69.9996 350.2226 0003836 273.2933  86.7824 15.69918912 10849,6737.266,91.724,361.715,356.547,0.0
55957.0,STARLINK-5884,PAYLOAD,2023-05-25 14:22:51,15.6992832,0.000363,69.9965,347.5372,263.6457,96.4325,-2.2438e-06,-4.83e-06,0.0,0 STARLINK-5884,1 55957U 23037AV  23145.59920759 -.00000483  00000-0 -22438-5 0  9998,2 55957  69.9965 347.5372 0003630 263.6457  96.4325 15.69928320 10996,6737.239,91.724,361.55,356.658,0.0
55957.0,STARLINK-5884,PAYLOAD,2023-05-25 15:54:36,15.69929906,0.0003494,69.9973,347.3577,265.2068,94.8728,4.7973e-06,3.64e-06,0.0,0 STARLINK-5884,1 55957U 23037AV  23145.66292214  .00000364  00000-0  47973-5 0  9991,2 55957  69.9973 347.3577 0003494 265.2068  94.8728 15.69929906 11344,6737.235,91.724,361.454,356.746,0.0
55957.0,STARLINK-5884,PAYLOAD,2023-05-25 22:01:36,15.69934787,0.0003483,69.9971,346.6408,263.5809,96.499,8.3103e-06,7.87e-06,0.0,0 STARLINK-5884,1 55957U 23037AV  23145.91778433  .00000787  00000-0  83103-5 0  9995,2 55957  69.9971 346.6408 0003483 263.5809  96.4990 15.69934787 11048,6737.221,91.724,361.432,356.739,0.0
55957.0,STARLINK-5884,PAYLOAD,2023-05-25 23:33:23,15.69915076,0.0003622,69.9966,346.462,268.61,91.468,-1.822e-05,-2.402e-05,0.0,0 STARLINK-5884,1 55957U 23037AV  23145.98151700 -.00002402  00000-0 -18220-4 0  9999,2 55957  69.9966 346.4620 0003622 268.6100  91.4680 15.69915076 11390,6737.277,91.725,361.582,356.702,0.0
55957.0,STARLINK-5884,PAYLOAD,2023-05-26 13:19:08,15.69913988,0.0003938,69.9959,344.8474,266.2161,93.8584,1.5769e-05,1.683e-05,0.0,0 STARLINK-5884,1 55957U 23037AV  23146.55496285  .00001683  00000-0  15769-4 0  9996,2 55957  69.9959 344.8474 0003938 266.2161  93.8584 15.69913988 11144,6737.28,91.725,361.798,356.492,0.0
55957.0,STARLINK-5884,PAYLOAD,2023-05-26 16:22:38,15.69915682,0.0003817,69.9986,344.4877,272.2329,87.843,3.2343e-05,3.677e-05,0.0,0 STARLINK-5884,1 55957U 23037AV  23146.68239461  .00003677  00000-0  32343-4 0  9993,2 55957  69.9986 344.4877 0003817 272.2329  87.8430 15.69915682 11502,6737.275,91.725,361.712,356.569,0.0
55957.0,STARLINK-5884,PAYLOAD,2023-05-26 20:57:53,15.69935554,0.0003333,70.0004,343.9556,261.5695,98.5123,6.2691e-06,5.41e-06,0.0,0 STARLINK-5884,1 55957U 23037AV  23146.87353498  .00000541  00000-0  62691-5 0  9998,2 55957  70.0004 343.9556 0003333 261.5695  98.5123 15.69935554 11197,6737.218,91.724,361.329,356.838,0.0
55957.0,STARLINK-5884,PAYLOAD,2023-05-27 21:25:55,15.69928646,0.000377,69.9961,341.0857,274.2416,85.8349,5.3763e-06,4.34e-06,0.0,0 STARLINK-5884,1 55957U 23037AV  23147.89300751  .00000434  00000-0  53763-5 0  9996,2 55957  69.9961 341.0857 0003770 274.2416  85.8349 15.69928646 11357,6737.238,91.724,361.643,356.563,0.0
55957.0,STARLINK-5884,PAYLOAD,2023-05-27 22:57:41,15.69927778,0.0003607,69.9971,340.9075,269.3751,90.7031,6.6118e-06,5.82e-06,0.0,0 STARLINK-5884,1 55957U 23037AV  23147.95672464  .00000582  00000-0  66118-5 0  9998,2 55957  69.9971 340.9075 0003607 269.3751  90.7031 15.69927778 11701,6737.241,91.724,361.536,356.676,0.0
55957.0,STARLINK-5884,PAYLOAD,2023-05-28 20:22:12,15.69933842,0.0003739,69.9987,338.3993,272.9021,87.1747,2.4421e-05,2.726e-05,0.0,0 STARLINK-5884,1 55957U 23037AV  23148.84875391  .00002726  00000-0  24421-4 0  9993,2 55957  69.9987 338.3993 0003739 272.9021  87.1747 15.69933842 11505,6737.223,91.724,361.607,356.569,0.0
55957.0,STARLINK-5884,PAYLOAD,2023-05-29 05:32:44,15.69912766,0.0003634,69.999,337.3247,270.95,89.1279,-6.1978e-06,-9.58e-06,0.0,0 STARLINK-5884,1 55957U 23037AV  23149.23106522 -.00000958  00000-0 -61978-5 0  9996,2 55957  69.9990 337.3247 0003634 270.9500  89.1279 15.69912766 11902,6737.284,91.725,361.597,356.7,0.0
55957.0,STARLINK-5884,PAYLOAD,2023-05-29 14:43:14,15.69923479,0.0003768,69.9986,336.25,270.5328,89.5436,1.111e-05,1.123e-05,0.0,0 STARLINK-5884,1 55957U 23037AV  23149.61336130  .00001123  00000-0  11110-4 0  9993,2 55957  69.9986 336.2500 0003768 270.5328  89.5436 15.69923479 11620,6737.253,91.724,361.657,356.579,0.0
55957.0,STARLINK-5884,PAYLOAD,2023-05-29 16:14:59,15.69925633,0.0003728,69.999,336.0708,271.0555,89.0213,1.5694e-05,1.675e-05,0.0,0 STARLINK-5884,1 55957U 23037AV  23149.67707761  .00001675  00000-0  15694-4 0  9994,2 55957  69.9990 336.0708 0003728 271.0555  89.0213 15.69925633 11977,6737.247,91.724,361.623,356.6,0.0
55957.0,STARLINK-5884,PAYLOAD,2023-05-29 20:50:14,15.69933503,0.0003657,69.9994,335.5337,270.5744,89.5033,3.7133e-05,4.256e-05,0.0,0 STARLINK-5884,1 55957U 23037AV  23149.86822410  .00004256  00000-0  37133-4 0  9994,2 55957  69.9994 335.5337 0003657 270.5744  89.5033 15.69933503 11664,6737.224,91.724,361.553,356.625,0.0
